H1 CPF  1  HTS 2022  9  8 12  7511 larets           NONE
H2  0304206 5557    27944 2022 09 08  0  0  0 2022 09 13  0  0  0   180 1 1  0 0 0
H5  0.0560 
H9 
10 0 59833  57960.00000  0   -6036423.062    3498755.661    1036406.477
10 0 59833  58140.00000  0   -5610587.427    3577737.979    2334495.968
10 0 59833  58320.00000  0   -4979417.789    3512022.311    3546596.903
10 0 59833  58500.00000  0   -4169879.730    3299013.211    4628106.540
10 0 59833  58680.00000  0   -3215486.846    2942333.973    5539318.262
10 0 59833  58860.00000  0   -2154855.624    2451815.551    6246890.510
10 0 59833  59040.00000  0   -1030084.511    1843215.262    6725048.958
10 0 59833  59220.00000  0     114960.006    1137680.895    6956481.646
10 0 59833  59400.00000  0    1236371.315     360989.275    6932917.714
10 0 59833  59580.00000  0    2291888.995    -457410.759    6655387.633
10 0 59833  59760.00000  0    3242488.299   -1285520.457    6134165.318
10 0 59833  59940.00000  0    4053825.630   -2090042.759    5388394.200
10 0 59833  60120.00000  0    4697491.638   -2837720.422    4445401.585
10 0 59833  60300.00000  0    5152026.430   -3496712.185    3339720.488
10 0 59833  60480.00000  0    5403660.757   -4037952.989    2111838.172
10 0 59833  60660.00000  0    5446742.008   -4436432.123     806707.305
10 0 59833  60840.00000  0    5283824.406   -4672329.246    -527920.173
10 0 59833  61020.00000  0    4925420.797   -4731950.021   -1843271.874
10 0 59833  61200.00000  0    4389426.176   -4608411.029   -3091370.592
10 0 59833  61380.00000  0    3700245.404   -4302040.797   -4226803.338
10 0 59833  61560.00000  0    2887675.872   -3820481.722   -5208369.376
10 0 59833  61740.00000  0    1985604.803   -3178493.817   -6000542.292
10 0 59833  61920.00000  0    1030591.552   -2397480.954   -6574697.865
10 0 59833  62100.00000  0      60396.052   -1504764.308   -6910088.990
10 0 59833  62280.00000  0    -887492.874    -532625.261   -6994541.509
10 0 59833  62460.00000  0   -1777273.728     482842.116   -6824863.224
10 0 59833  62640.00000  0   -2576156.793    1503036.259   -6406967.590
10 0 59833  62820.00000  0   -3255557.001    2488278.649   -5755708.599
10 0 59833  63000.00000  0   -3792124.582    3399333.010   -4894426.167
10 0 59833  63180.00000  0   -4168582.712    4198969.386   -3854191.855
10 0 59833  63360.00000  0   -4374328.809    4853510.098   -2672754.955
10 0 59833  63540.00000  0   -4405767.539    5334289.186   -1393216.415
10 0 59833  63720.00000  0   -4266358.780    5618954.858     -62464.041
10 0 59833  63900.00000  0   -3966362.376    5692540.568    1270581.388
10 0 59833  64080.00000  0   -3522284.766    5548235.534    2556829.688
10 0 59833  64260.00000  0   -2956049.988    5187805.256    3748908.489
10 0 59833  64440.00000  0   -2293939.622    4621635.983    4802969.799
10 0 59833  64620.00000  0   -1565369.379    3868411.493    5680338.086
10 0 59833  64800.00000  0    -801566.267    2954440.200    6348935.099
10 0 59833  64980.00000  0     -34214.642    1912671.758    6784426.348
10 0 59833  65160.00000  0     705863.967     781458.133    6971063.123
10 0 59833  65340.00000  0    1389948.813    -396890.528    6902207.824
10 0 59833  65520.00000  0    1992530.065   -1577701.213    6580538.506
10 0 59833  65700.00000  0    2492256.251   -2715636.188    6017934.880
10 0 59833  65880.00000  0    2872691.276   -3766438.493    5235048.099
10 0 59833  66060.00000  0    3122855.083   -4688664.208    4260561.044
10 0 59833  66240.00000  0    3237531.273   -5445337.810    3130158.177
10 0 59833  66420.00000  0    3217329.267   -6005463.035    1885228.081
10 0 59833  66600.00000  0    3068494.721   -6345318.366     571340.852
10 0 59833  66780.00000  0    2802479.793   -6449472.391    -763439.828
10 0 59833  66960.00000  0    2435294.338   -6311472.951   -2070347.702
10 0 59833  67140.00000  0    1986665.850   -5934164.746   -3301729.410
10 0 59833  67320.00000  0    1479054.675   -5329625.783   -4412800.944
10 0 59833  67500.00000  0     936580.186   -4518725.970   -5363265.999
10 0 59833  67680.00000  0     383918.827   -3530349.875   -6118737.771
10 0 59833  67860.00000  0    -154780.150   -2400325.821   -6651925.789
10 0 59833  68040.00000  0    -656915.041   -1170109.476   -6943558.211
10 0 59833  68220.00000  0   -1102348.984     114725.997   -6983027.274
10 0 59833  68400.00000  0   -1474195.132    1406145.080   -6768749.920
10 0 59833  68580.00000  0   -1759447.430    2655400.942   -6308240.525
10 0 59833  68760.00000  0   -1949438.088    3814839.154   -5617897.006
10 0 59833  68940.00000  0   -2040109.039    4839707.761   -4722492.663
10 0 59833  69120.00000  0   -2032085.499    5689913.108   -3654367.176
10 0 59833  69300.00000  0   -1930542.882    6331647.505   -2452321.350
10 0 59833  69480.00000  0   -1744866.404    6738813.152   -1160244.673
10 0 59833  69660.00000  0   -1488116.810    6894169.159     174488.261
10 0 59833  69840.00000  0   -1176322.693    6790133.992    1502792.054
10 0 59833  70020.00000  0    -827632.570    6429182.701    2775749.934
10 0 59833  70200.00000  0    -461372.562    5823798.351    3946489.839
10 0 59833  70380.00000  0     -97065.529    4996002.352    4971964.959
10 0 59833  70560.00000  0     246537.960    3976482.602    5814573.264
10 0 59833  70740.00000  0     552368.559    2803371.765    6443530.230
10 0 59833  70920.00000  0     805837.694    1520750.448    6835965.617
10 0 59833  71100.00000  0     995496.169     176937.252    6977711.444
10 0 59833  71280.00000  0    1113527.532   -1177358.753    6863769.400
10 0 59833  71460.00000  0    1156059.373   -2490960.187    6498461.362
10 0 59833  71640.00000  0    1123283.191   -3714160.752    5895258.355
10 0 59833  71820.00000  0    1019379.307   -4800613.915    5076288.955
10 0 59833  72000.00000  0     852255.329   -5709100.211    4071546.181
10 0 59833  72180.00000  0     633109.061   -6405123.289    2917814.030
10 0 59833  72360.00000  0     375830.320   -6862263.533    1657329.221
10 0 59833  72540.00000  0      96268.074   -7063220.558     336228.145
10 0 59833  72720.00000  0    -188600.881   -7000498.546    -997167.753
10 0 59833  72900.00000  0    -461558.930   -6676683.240   -2294159.891
10 0 59833  73080.00000  0    -706039.786   -6104302.211   -3507479.047
10 0 59833  73260.00000  0    -906983.124   -5305289.508   -4593018.920
10 0 59833  73440.00000  0   -1051609.388   -4310080.964   -5511425.943
10 0 59833  73620.00000  0   -1130077.266   -3156397.819   -6229483.008
10 0 59833  73800.00000  0   -1135995.909   -1887782.123   -6721252.221
10 0 59833  73980.00000  0   -1066773.438    -551945.954   -6968949.500
10 0 59833  74160.00000  0    -923791.362     801001.176   -6963538.772
10 0 59833  74340.00000  0    -712397.230    2120390.436   -6705041.467
10 0 59833  74520.00000  0    -441716.625    3356846.580   -6202560.829
10 0 59833  74700.00000  0    -124287.310    4464111.919   -5474018.272
10 0 59833  74880.00000  0     224477.851    5400786.662   -4545590.340
10 0 59833  75060.00000  0     586980.962    6131924.439   -3450847.504
10 0 59833  75240.00000  0     944259.146    6630415.929   -2229600.719
10 0 59833  75420.00000  0    1276901.229    6878090.433    -926482.512
10 0 59833  75600.00000  0    1566018.322    6866471.114     410696.757
10 0 59833  75780.00000  0    1794216.734    6597127.082    1732751.782
10 0 59833  75960.00000  0    1946516.720    6081597.410    2990997.263
10 0 59833  76140.00000  0    2011169.443    5340892.309    4139108.925
10 0 59833  76320.00000  0    1980326.523    4404593.067    5134887.990
10 0 59833  76500.00000  0    1850524.571    3309594.059    5941843.143
10 0 59833  76680.00000  0    1622963.062    2098571.197    6530515.883
10 0 59833  76860.00000  0    1303569.394     818259.184    6879524.519
10 0 59833  77040.00000  0     902848.165    -482393.898    6976294.639
10 0 59833  77220.00000  0     435524.340   -1754112.322    6817471.477
10 0 59833  77400.00000  0     -80009.029   -2949165.522    6409014.095
10 0 59833  77580.00000  0    -622419.357   -4023163.428    5765962.459
10 0 59833  77760.00000  0   -1168307.245   -4936706.530    4911889.184
10 0 59833  77940.00000  0   -1693197.637   -5656847.715    3878065.724
10 0 59833  78120.00000  0   -2172617.841   -6158320.444    2702340.138
10 0 59833  78300.00000  0   -2583210.733   -6424462.250    1427754.196
10 0 59833  78480.00000  0   -2903829.443   -6447792.129     100954.575
10 0 59833  78660.00000  0   -3116556.703   -6230214.808   -1229542.391
10 0 59833  78840.00000  0   -3207598.691   -5782839.379   -2515158.915
10 0 59833  79020.00000  0   -3168008.893   -5125421.286   -3709057.878
10 0 59833  79200.00000  0   -2994203.862   -4285459.036   -4767858.739
10 0 59833  79380.00000  0   -2688248.153   -3297002.302   -5653192.645
10 0 59833  79560.00000  0   -2257904.289   -2199239.549   -6333046.676
10 0 59833  79740.00000  0   -1716448.261   -1034929.936   -6782862.540
10 0 59833  79920.00000  0   -1082259.081     151255.283   -6986361.922
10 0 59833  80100.00000  0    -378204.056    1314416.776   -6936087.823
10 0 59833  80280.00000  0     369163.922    2411085.609   -6633665.623
10 0 59833  80460.00000  0    1130576.671    3400815.942   -6089780.534
10 0 59833  80640.00000  0    1875169.553    4247670.792   -5323860.722
10 0 59833  80820.00000  0    2571711.418    4921548.450   -4363459.960
10 0 59833  81000.00000  0    3189906.017    5399305.801   -3243343.620
10 0 59833  81180.00000  0    3701712.807    5665625.568   -2004286.125
10 0 59833  81360.00000  0    4082628.493    5713578.935    -691608.066
10 0 59833  81540.00000  0    4312858.481    5544844.299     646500.916
10 0 59833  81720.00000  0    4378311.418    5169558.154    1960803.498
10 0 59833  81900.00000  0    4271359.397    4605801.950    3202892.814
10 0 59833  82080.00000  0    3991321.548    3878750.585    4327047.665
10 0 59833  82260.00000  0    3544639.710    3019521.972    5291966.294
99
